STARLINK-31053          
1 58549U 23192U   26068.37731309 -.00000081  00000+0  93840-5 0  9991
2 58549  53.1606  64.4627 0001465  95.4220 264.6948 15.30191630125939
HAWK-11A                
1 62382U 24247F   26068.51231358  .00009457  00000+0  34106-3 0  9991
2 62382  44.9941 114.3328 0005466 327.3713  32.6832 15.28849427 67741
